TRANSPORTER-12 OBJECT AZ
1 62656U 25009AZ  26068.71026235  .00016057  00000+0  54903-3 0  9991
2 62656  97.3981 151.9913 0000987  45.3581 314.7740 15.30349724 63792
STARLINK-34471          
1 64739U 25144R   26068.58207338  .00017465  00000+0  60055-3 0  9994
2 64739  53.1592 181.6625 0001140  90.6448 269.4684 15.30191669 39633
